H1 CPF 01  gfz 2022 04 11 12  6012 terrasarx 
H2 0702601  6201 31698    2022 04 11 12 59 42 2022 04 16 00 00 42   120 1 1  0 0 0
H9
10 0 59684  32382.000000  0    1142874.173  -2300486.153  -6398505.086
10 0 59684  32502.000000  0     483081.681  -1717619.844  -6660113.044
10 0 59684  32622.000000  0    -174515.072  -1093474.701  -6805534.871
10 0 59684  32742.000000  0    -817899.864   -439011.223  -6832271.430
10 0 59684  32862.000000  0   -1435504.314    234087.839  -6739864.744
10 0 59684  32982.000000  0   -2016411.281    913620.801  -6529904.379
10 0 59684  33102.000000  0   -2550543.256   1587082.579  -6206002.985
10 0 59684  33222.000000  0   -3028834.138   2241889.089  -5773741.046
10 0 59684  33342.000000  0   -3443383.159   2865608.475  -5240581.625
10 0 59684  33462.000000  0   -3787588.737   3446196.141  -4615753.499
10 0 59684  33582.000000  0   -4056258.934   3972228.434  -3910101.667
10 0 59684  33702.000000  0   -4245694.210   4433130.145  -3135907.837
10 0 59684  33822.000000  0   -4353742.079   4819391.755  -2306684.332
10 0 59684  33942.000000  0   -4379822.993   5122770.609  -1436942.135
10 0 59684  34062.000000  0   -4324925.656   5336472.172   -541937.409
10 0 59684  34182.000000  0   -4191569.813   5455305.634    362601.392
10 0 59684  34302.000000  0   -3983737.240   5475807.392   1260756.372
10 0 59684  34422.000000  0   -3706773.578   5396332.289   2136709.969
10 0 59684  34542.000000  0   -3367261.488   5217105.917   2975034.039
10 0 59684  34662.000000  0   -2972868.077   4940238.477   3760969.107
10 0 59684  34782.000000  0   -2532173.468   4569701.512   4480688.799
10 0 59684  34902.000000  0   -2054483.670   4111267.404   5121545.894
10 0 59684  35022.000000  0   -1549632.783   3572412.979   5672294.572
10 0 59684  35142.000000  0   -1027778.504   2962189.976   6123284.650
10 0 59684  35262.000000  0    -499196.685   2291065.765   6466624.840
10 0 59684  35382.000000  0      25920.378   1570739.132   6696313.892
10 0 59684  35502.000000  0     537659.895    813933.499   6808340.541
10 0 59684  35622.000000  0    1026575.037     34170.931   6800748.215
10 0 59684  35742.000000  0    1483858.143   -754468.291   6673667.448
10 0 59684  35862.000000  0    1901498.928  -1537599.542   6429314.471
10 0 59684  35982.000000  0    2272425.036  -2300795.322   6071955.357
10 0 59684  36102.000000  0    2590623.322  -3029851.949   5607836.952
10 0 59684  36222.000000  0    2851239.420  -3711056.163   5045083.062
10 0 59684  36342.000000  0    3050653.259  -4331446.573   4393558.018
10 0 59684  36462.000000  0    3186530.625  -4879066.391   3664698.962
10 0 59684  36582.000000  0    3257848.087  -5343200.670   2871317.028
10 0 59684  36702.000000  0    3264891.177  -5714593.418   2027372.108
10 0 59684  36822.000000  0    3209224.455  -5985638.722   1147723.761
10 0 59684  36942.000000  0    3093635.372  -6150540.097    247864.203
10 0 59684  37062.000000  0    2922053.733  -6205436.193   -656360.989
10 0 59684  37182.000000  0    2699446.643  -6148488.689  -1549042.265
10 0 59684  37302.000000  0    2431691.761  -5979926.580  -2414494.485
10 0 59684  37422.000000  0    2125434.280  -5702050.870  -3237539.300
10 0 59684  37542.000000  0    1787928.396  -5319196.992  -4003776.924
10 0 59684  37662.000000  0    1426869.999  -4837655.279  -4699837.667
10 0 59684  37782.000000  0    1050225.974  -4265555.680  -5313610.528
10 0 59684  37902.000000  0     666062.631  -3612720.210  -5834446.663
10 0 59684  38022.000000  0     282376.871  -2890485.396  -6253334.407
10 0 59684  38142.000000  0     -93066.179  -2111499.608  -6563043.693
10 0 59684  38262.000000  0    -452885.941  -1289499.345  -6758239.680
10 0 59684  38382.000000  0    -790226.721   -439068.308  -6835565.548
10 0 59684  38502.000000  0   -1098884.072    424617.692  -6793693.569
10 0 59684  38622.000000  0   -1373416.029   1286054.771  -6633344.400
10 0 59684  38742.000000  0   -1609236.778   2129682.275  -6357275.872
10 0 59684  38862.000000  0   -1802691.876   2940156.754  -5970241.307
10 0 59684  38982.000000  0   -1951115.070   3702627.553  -5478917.288
10 0 59684  39102.000000  0   -2052864.454   4403007.871  -4891799.287
10 0 59684  39222.000000  0   -2107338.476   5028238.366  -4219066.410
10 0 59684  39342.000000  0   -2114970.335   5566536.862  -3472414.122
10 0 59684  39462.000000  0   -2077200.181   6007628.053  -2664858.684
10 0 59684  39582.000000  0   -1996425.876   6342950.036  -1810516.130
10 0 59684  39702.000000  0   -1875933.729   6565831.729   -924356.426
10 0 59684  39822.000000  0   -1719809.758   6671634.838    -21939.596
10 0 59684  39942.000000  0   -1532833.506   6657859.981    880862.072
10 0 59684  40062.000000  0   -1320356.819   6524209.603   1768154.257
10 0 59684  40182.000000  0   -1088169.903   6272602.079   2624310.953
10 0 59684  40302.000000  0    -842359.338   5907142.013   3434256.793
10 0 59684  40422.000000  0    -589161.927   5434048.572   4183737.832
10 0 59684  40542.000000  0    -334818.174   4861543.071   4859577.747
10 0 59684  40662.000000  0     -85426.782   4199693.218   5449911.379
10 0 59684  40782.000000  0     153194.082   3460227.153   5944388.051
10 0 59684  40902.000000  0     375635.380   2656317.708   6334350.265
10 0 59684  41022.000000  0     577014.221   1802340.603   6612978.914
10 0 59684  41142.000000  0     753076.829    913613.229   6775406.738
10 0 59684  41262.000000  0     900285.364      6117.798   6818797.365
10 0 59684  41382.000000  0    1015887.461   -903784.759   6742391.962
10 0 59684  41502.000000  0    1097967.287  -1799649.468   6547522.741
10 0 59684  41622.000000  0    1145477.405  -2665244.123   6237591.569
10 0 59684  41742.000000  0    1158250.884  -3484844.847   5818014.576
10 0 59684  41862.000000  0    1136992.696  -4243524.095   5296131.236
10 0 59684  41982.000000  0    1083252.689  -4927425.069   4681081.536
10 0 59684  42102.000000  0     999379.459  -5524021.164   3983653.017
10 0 59684  42222.000000  0     888455.665  -6022355.638   3216095.790
10 0 59684  42342.000000  0     754216.301  -6413252.927   2391907.927
10 0 59684  42462.000000  0     600950.640  -6689496.981   1525596.627
10 0 59684  42582.000000  0     433391.139  -6845972.986    632419.261
10 0 59684  42702.000000  0     256591.749  -6879770.152   -271892.670
10 0 59684  42822.000000  0      75797.840  -6790237.493  -1171421.568
10 0 59684  42942.000000  0    -103686.954  -6578992.281  -2050353.091
10 0 59684  43062.000000  0    -276634.072  -6249884.109  -2893260.792
10 0 59684  43182.000000  0    -438020.637  -5808915.806  -3685381.862
10 0 59684  43302.000000  0    -583154.244  -5264122.081  -4412878.259
10 0 59684  43422.000000  0    -707788.426  -4625409.449  -5063076.219
10 0 59684  43542.000000  0    -808226.324  -3904364.265  -5624680.753
10 0 59684  43662.000000  0    -881410.283  -3114032.786  -6087963.112
10 0 59684  43782.000000  0    -924995.681  -2268678.354  -6444918.767
10 0 59684  43902.000000  0    -937408.026  -1383520.692  -6689394.112
10 0 59684  44022.000000  0    -917882.663   -474463.136  -6817181.949
10 0 59684  44142.000000  0    -866486.310    442189.242  -6826086.168
10 0 59684  44262.000000  0    -784119.674   1350015.262  -6715954.184
10 0 59684  44382.000000  0    -672502.108   2232764.082  -6488679.225
10 0 59684  44502.000000  0    -534138.372   3074638.815  -6148171.858
10 0 59684  44622.000000  0    -372267.066   3860575.404  -5700301.249
10 0 59684  44742.000000  0    -190791.588   4576511.373  -5152803.630
10 0 59684  44862.000000  0       5804.797   5209639.780  -4515160.321
10 0 59684  44982.000000  0     212558.553   5748645.534  -3798444.467
10 0 59684  45102.000000  0     424138.793   6183917.379  -3015137.399
10 0 59684  45222.000000  0     634971.139   6507730.959  -2178917.712
10 0 59684  45342.000000  0     839370.036   6714399.061  -1304425.164
10 0 59684  45462.000000  0    1031676.390   6800383.666   -407002.873
10 0 59684  45582.000000  0    1206397.271   6764366.290    497576.930
10 0 59684  45702.000000  0    1358343.779   6607273.140   1393397.707
10 0 59684  45822.000000  0    1482762.619   6332255.503   2264686.446
10 0 59684  45942.000000  0    1575458.899   5944626.627   3096099.408
10 0 59684  46062.000000  0    1632907.504   5451755.776   3872999.978
10 0 59684  46182.000000  0    1652349.312   4862920.569   4581722.444
10 0 59684  46302.000000  0    1631871.082   4189122.625   5209816.323
10 0 59684  46422.000000  0    1570464.193   3442869.717   5746263.677
10 0 59684  46542.000000  0    1468064.584   2637936.200   6181666.813
10 0 59684  46662.000000  0    1325571.830   1789102.572   6508408.609
10 0 59684  46782.000000  0    1144847.211    911878.855   6720779.987
10 0 59684  46902.000000  0     928690.856     22218.776   6815072.636
10 0 59684  47022.000000  0     680798.617   -863768.891   6789639.938
10 0 59684  47142.000000  0     405698.707  -1730111.945   6644925.402
10 0 59684  47262.000000  0     108668.899  -2561262.540   6383455.415
10 0 59684  47382.000000  0    -204364.236  -3342377.405   6009797.649
10 0 59684  47502.000000  0    -526941.178  -4059583.941   5530483.446
10 0 59684  47622.000000  0    -852198.916  -4700227.846   4953899.936
10 0 59684  47742.000000  0   -1173013.311  -5253102.898   4290152.404
10 0 59684  47862.000000  0   -1482152.113  -5708657.547   3550892.272
10 0 59684  47982.000000  0   -1772433.689  -6059169.626   2749113.691
10 0 59684  48102.000000  0   -2036888.883  -6298886.046   1898924.933
10 0 59684  48222.000000  0   -2268922.306  -6424124.977   1015296.570
10 0 59684  48342.000000  0   -2462467.187  -6433336.596    113791.163
10 0 59684  48462.000000  0   -2612130.825  -6327121.241   -789719.044
10 0 59684  48582.000000  0   -2713327.012  -6108203.989  -1679340.443
10 0 59684  48702.000000  0   -2762392.377  -5781366.485  -2539445.919
10 0 59684  48822.000000  0   -2756683.485  -5353337.975  -3354956.289
99
